,num,lon,lat,latlon,notes,location,spininital,spinfinish,runs,x,y,umw
1,1,-72.25,42.75,lat42.75lon-72.25,site,geo,16-Jan-16,18-Jan-16,26-Jan-16,1.8971487258,0.7478143244,n
2,2,-68.75,45.25,lat45.25lon-68.75,site,geo,16-Jan-16,18-Jan-16,27-Jan-16,2.1300171468,1.0666769529,n
3,3,-89.75,46.25,lat46.25lon-89.75,site,geo,16-Jan-16,18-Jan-16,25-Jan-16,0.5000789197,1.0960596389,y
4,4,-94.75,46.25,lat46.25lon-94.75,site,geo,16-Jan-16,18-Jan-16,26-Jan-16,0.1176584947,1.1390651446,y
5,5,-95.25,47.25,lat47.25lon-95.25,site,geo,16-Apr-16,23-Apr-16,2-May-16,0.096142947,1.2547786483,y
6,6,-82.75,43.75,lat43.75lon-82.75,site,geo,16-Apr-16,16-Apr-16,24-Apr-16,1.0401096978,0.7976645619,n
7,7,-97.25,37.75,lat37.75lon-97.25,10-degree,geo,15-Apr-16,21-Apr-16,27-Apr-16,-0.2358461445,0.2404502605,n
8,8,-87.25,37.75,lat37.75lon-87.25,10-degree,geo,15-Apr-16,20-Apr-16,25-Apr-16,0.6451687157,0.1413747742,n
9,9,-77.25,37.75,lat37.75lon-77.25,10-degree,geo,17-Apr-16,22-Apr-16,27-Apr-16,1.5316684734,0.1523890944,n
10,10,-97.25,47.75,lat47.75lon-97.25,10-degree,geo,17-Apr-16,23-Apr-16,2-May-16,-0.0434197753,1.3339449385,y
11,11,-77.25,47.75,lat47.75lon-77.25,10-degree,geo,18-Apr-16,24-Apr-16,4-May-16,1.4488854875,1.2595952611,n
12,12,-67.25,47.75,lat47.75lon-67.25,10-degree,geo,17-Apr-16,23-Apr-16,1-May-16,2.1904147919,1.361699226,n
13,13,-92.25,42.75,lat42.75lon-92.25,5-degree,geo,17-Apr-16,22-Apr-16,28-Apr-16,0.2650078398,0.7275357827,n
14,14,-82.25,42.75,lat42.75lon-82.25,5-degree,geo,17-Apr-16,21-Apr-16,28-Apr-16,1.0817098082,0.6868460328,n
15,15,-92.25,37.75,lat37.75lon-92.25,5-degree,geo,24-Feb-16,3-Mar-16,9-Mar-16,0.2031200475,0.1772072742,n
16,16,-82.25,37.75,lat37.75lon-82.25,5-degree,geo,24-Feb-16,3-Mar-16,17-Apr-16,1.0885899355,0.133091367,n
17,17,-97.25,42.75,lat42.75lon-97.25,5-degree,geo,24-Feb-16,2-Mar-16,22-Apr-16,-0.1398670837,0.7858671524,n
18,18,-77.25,42.75,lat42.75lon-77.25,5-degree,geo,31-Jan-16,4-Feb-16,18-Apr-16,1.4903777019,0.704645048,n
19,19,-92.25,47.75,lat47.75lon-92.25,5-degree,geo,31-Jan-16,4-Feb-16,2-May-16,0.3271975605,1.2805491474,y
20,20,-82.25,47.75,lat47.75lon-82.25,5-degree,geo,31-Jan-16,2-Feb-16,30-Apr-16,1.0747961152,1.2433022699,n
21,21,-72.25,47.75,lat47.75lon-72.25,5-degree,geo,31-Jan-16,4-Feb-16,24-Apr-16,1.8212384894,1.2991118656,n
22,22,-99.75,35.25,lat35.25lon-99.75,2.5-degree,geo,31-Jan-16,6-Feb-16,18-Apr-16,-0.5096700816,0.0132053799,n
23,23,-94.75,35.25,lat35.25lon-94.75,2.5-degree,geo,31-Jan-16,2-Feb-16,23-Feb-16,-0.0560476966,-0.0666202565,n
24,24,-89.75,35.25,lat35.25lon-89.75,2.5-degree,geo,3-Feb-16,1-Mar-16,18-Apr-16,0.4016596724,-0.1180922376,n
25,25,-84.75,35.25,lat35.25lon-84.75,2.5-degree,geo,3-Feb-16,1-Mar-16,18-Apr-16,0.8616815302,-0.1410114604,n
26,26,-79.75,35.25,lat35.25lon-79.75,2.5-degree,geo,3-Feb-16,1-Mar-16,21-Apr-16,1.322238429,-0.1352892691,n
27,27,-99.75,40.25,lat40.25lon-99.75,2.5-degree,geo,12-Mar-16,17-Mar-16,16-Apr-16,-0.3973090311,0.5528159377,n
28,28,-94.75,40.25,lat40.25lon-94.75,2.5-degree,geo,13-Mar-16,17-Mar-16,23-Mar-16,0.0225513497,0.4789315282,n
29,29,-89.75,40.25,lat40.25lon-89.75,2.5-degree,geo,16-Mar-16,17-Mar-16,23-Mar-16,0.4461926791,0.4312904807,n
30,30,-84.75,40.25,lat40.25lon-84.75,2.5-degree,geo,16-Mar-16,17-Mar-16,23-Mar-16,0.8719762355,0.4100770796,n
31,31,-79.75,40.25,lat40.25lon-79.75,2.5-degree,geo,16-Mar-16,17-Mar-16,23-Mar-16,1.2982550111,0.4153733822,n
32,32,-74.75,40.25,lat40.25lon-74.75,2.5-degree,geo,16-Mar-16,17-Mar-16,24-Mar-16,1.7233800823,0.4471589013,n
33,33,-99.75,45.25,lat45.25lon-99.75,2.5-degree,geo,13-Mar-16,17-Mar-16,23-Mar-16,-0.2840470913,1.0967529888,n
34,34,-94.75,45.25,lat45.25lon-94.75,2.5-degree,geo,13-Mar-16,17-Mar-16,29-Mar-16,0.101780588,1.0288574417,y
35,35,-89.75,45.25,lat45.25lon-89.75,2.5-degree,geo,26-Mar-16,5-Apr-16,12-Apr-16,0.4910827428,0.9850780435,y
36,36,-84.75,45.25,lat45.25lon-84.75,2.5-degree,geo,ERROR,,,0.8823534818,0.9655841411,y
37,37,-79.75,45.25,lat45.25lon-79.75,2.5-degree,geo,26-Mar-16,5-Apr-16,13-Apr-16,1.2740792988,0.9704511402,n
38,38,-74.75,45.25,lat45.25lon-74.75,2.5-degree,geo,26-Mar-16,5-Apr-16,12-Apr-16,1.6647449275,0.9996602146,n
39,39,-69.75,45.25,lat45.25lon-69.75,2.5-degree,geo,26-Mar-16,5-Apr-16,19-Apr-16,2.0528392022,1.0530983781,n
40,40,-64.75,45.25,lat45.25lon-64.75,2.5-degree,geo,26-Mar-16,5-Apr-16,12-Apr-16,2.4368609041,1.1305589224,n
41,41,-97.25,35.25,lat35.25lon-97.25,2.5-degree,geo,25-Mar-16,5-Apr-16,11-Apr-16,-0.2834796307,-0.0302349051,n
42,42,-92.25,35.25,lat35.25lon-92.25,2.5-degree,geo,25-Mar-16,5-Apr-16,11-Apr-16,0.1724057306,-0.0959154796,n
43,43,-87.25,35.25,lat35.25lon-87.25,2.5-degree,geo,26-Mar-16,5-Apr-16,11-Apr-16,0.6314923764,-0.1331290795,n
44,44,-82.25,35.25,lat35.25lon-82.25,2.5-degree,geo,6-May-16,8-May-16,14-May-16,1.0920044766,-0.1417317558,n
45,45,-77.25,35.25,lat35.25lon-77.25,2.5-degree,geo,28-May-16,31-May-16,5-Jun-16,1.5521606868,-0.1216902319,n
46,46,-99.75,37.75,lat37.75lon-99.75,2.5-degree,geo,28-May-16,1-Jun-16,7-Jun-16,-0.4536420409,0.2822783562,n
47,47,-94.75,37.75,lat37.75lon-94.75,2.5-degree,geo,28-May-16,1-Jun-16,7-Jun-16,-0.0168548398,0.2054152704,n
48,48,-89.75,37.75,lat37.75lon-89.75,2.5-degree,geo,29-Apr-16,2-May-16,8-May-16,0.4238657402,0.1558535572,n
49,49,-84.75,37.75,lat37.75lon-84.75,2.5-degree,geo,29-Apr-16,2-May-16,6-May-16,0.866814912,0.1337849303,n
50,50,-79.75,37.75,lat37.75lon-79.75,2.5-degree,geo,29-Apr-16,2-May-16,6-May-16,1.3102792678,0.1392947552,n
51,51,-97.25,40.25,lat40.25lon-97.25,2.5-degree,geo,30-Apr-16,3-May-16,8-May-16,-0.187953382,0.5126088069,n
52,52,-92.25,40.25,lat40.25lon-92.25,2.5-degree,geo,30-Apr-16,4-May-16,11-May-16,0.2340015472,0.4518166769,n
53,53,-87.25,40.25,lat40.25lon-87.25,2.5-degree,geo,30-Apr-16,4-May-16,9-May-16,0.6589194973,0.4173727942,n
54,54,-82.25,40.25,lat40.25lon-82.25,2.5-degree,geo,30-Apr-16,4-May-16,8-May-16,1.0851568085,0.409410394,n
55,55,-77.25,40.25,lat40.25lon-77.25,2.5-degree,geo,30-Apr-16,3-May-16,8-May-16,1.5110647178,0.4279602763,n
56,56,-99.75,42.75,lat42.75lon-99.75,2.5-degree,geo,9-May-16,12-May-16,22-May-16,-0.3407483781,0.8244467682,n
57,57,-94.75,42.75,lat42.75lon-94.75,2.5-degree,geo,9-May-16,12-May-16,24-May-16,0.0621167806,0.7535530717,n
58,58,-89.75,42.75,lat42.75lon-89.75,2.5-degree,geo,9-May-16,11-May-16,22-May-16,0.4686098416,0.7078404515,y
59,59,-84.75,42.75,lat42.75lon-84.75,2.5-degree,geo,10-May-16,12-May-16,23-May-16,0.8771584161,0.6874857322,y
60,60,-74.75,42.75,lat42.75lon-74.75,2.5-degree,geo,10-May-16,12-May-16,23-May-16,1.6940989076,0.7230665458,n
61,61,-97.25,45.25,lat45.25lon-97.25,2.5-degree,geo,9-May-16,13-May-16,26-May-16,-0.0916612223,1.0598049349,n
62,62,-92.25,45.25,lat45.25lon-92.25,2.5-degree,geo,10-May-16,14-May-16,27-May-16,0.2960912272,1.003940444,y
63,63,-77.25,45.25,lat45.25lon-77.25,2.5-degree,geo,10-May-16,14-May-16,27-May-16,1.4696392493,0.9820177761,n
64,64,-72.25,45.25,lat45.25lon-72.25,2.5-degree,geo,10-May-16,14-May-16,26-May-16,1.8592076117,1.0233613905,n
65,65,-67.25,45.25,lat45.25lon-67.25,2.5-degree,geo,10-May-16,14-May-16,26-May-16,2.2454524033,1.0888424136,n
66,66,-99.75,47.75,lat47.75lon-99.75,2.5-degree,geo,10-May-16,19-May-16,30-May-16,-0.2273039475,1.3692602262,n
67,67,-94.75,47.75,lat47.75lon-94.75,2.5-degree,geo,11-May-16,20-May-16,31-May-16,0.1414736753,1.3043650416,y
68,68,-84.75,47.75,lat47.75lon-84.75,2.5-degree,geo,11-May-16,20-May-16,3-Jun-16,0.8875523825,1.2438878425,n
69,69,-79.75,47.75,lat47.75lon-79.75,2.5-degree,geo,11-May-16,20-May-16,29-May-16,1.2619674992,1.2485397648,n
70,70,-74.75,47.75,lat47.75lon-74.75,2.5-degree,geo,11-May-16,19-May-16,29-May-16,1.6353692782,1.276458065,n
71,71,-69.75,47.75,lat47.75lon-69.75,2.5-degree,geo,ERROR,,,2.0063133336,1.3275347502,n
72,72,-98.25,36.75,lat36.75lon-98.25,1.5-degree,geo,18-Jun-16,20-Jun-16,25-Jun-16,-0.3435556869,0.148143891,n
73,73,-96.75,36.75,lat36.75lon-96.75,1.5-degree,geo,18-Jun-16,23-Jun-16,27-Jun-16,-0.2105495975,0.1243115838,n
74,74,-95.25,36.75,lat36.75lon-95.25,1.5-degree,geo,18-Jun-16,23-Jun-16,7-Jul-16,-0.0771219481,0.1029653646,n
75,75,-93.75,36.75,lat36.75lon-93.75,1.5-degree,geo,19-Jun-16,23-Jun-16,29-Jun-16,0.0566807966,0.0841126671,n
76,76,-90.75,36.75,lat36.75lon-90.75,1.5-degree,geo,19-Jun-16,23-Jun-16,27-Jun-16,0.3252250765,0.0539132274,n
77,77,-89.25,36.75,lat36.75lon-89.25,1.5-degree,geo,ERROR,,,0.4598730942,0.0425770018,n
78,78,-87.75,36.75,lat36.75lon-87.75,1.5-degree,geo,28-May-16,1-Jun-16,7-Jun-16,0.594709205,0.0337553274,n
79,79,-86.25,36.75,lat36.75lon-86.25,1.5-degree,geo,28-May-16,1-Jun-16,7-Jun-16,0.7296864535,0.0274512763,n
80,80,-83.25,36.75,lat36.75lon-83.25,1.5-degree,geo,29-May-16,31-May-16,7-Jun-16,0.9998763144,0.0224039477,n
81,81,-81.75,36.75,lat36.75lon-81.75,1.5-degree,geo,29-May-16,31-May-16,5-Jun-16,1.1349948361,0.0236624278,n
82,82,-80.25,36.75,lat36.75lon-80.25,1.5-degree,geo,29-May-16,30-May-16,5-Jun-16,1.2700663475,0.0274420459,n
83,83,-78.75,36.75,lat36.75lon-78.75,1.5-degree,geo,28-May-16,30-May-16,5-Jun-16,1.4050438113,0.0337414858,n
84,84,-98.25,38.25,lat38.25lon-98.25,1.5-degree,geo,28-May-16,1-Jun-16,9-Jun-16,-0.3128848703,0.3105705006,n
85,85,-96.75,38.25,lat38.25lon-96.75,1.5-degree,geo,29-May-16,2-Jun-16,9-Jun-16,-0.1829150565,0.2872822396,n
86,86,-95.25,38.25,lat38.25lon-95.25,1.5-degree,geo,7-Jun-16,11-Jun-16,17-Jun-16,-0.0525333061,0.2664233139,n
87,87,-93.75,38.25,lat38.25lon-93.75,1.5-degree,geo,7-Jun-16,11-Jun-16,18-Jun-16,0.0782149768,0.2480009876,n
88,88,-90.75,38.25,lat38.25lon-90.75,1.5-degree,geo,7-Jun-16,11-Jun-16,16-Jun-16,0.3406289024,0.2184909436,n
89,89,-89.25,38.25,lat38.25lon-89.25,1.5-degree,geo,7-Jun-16,12-Jun-16,17-Jun-16,0.4722031625,0.2074135024,n
90,90,-87.75,38.25,lat38.25lon-87.75,1.5-degree,geo,7-Jun-16,9-Jun-16,16-Jun-16,0.6039612217,0.19879321,n
91,91,-86.25,38.25,lat38.25lon-86.25,1.5-degree,geo,7-Jun-16,9-Jun-16,16-Jun-16,0.7358571968,0.1926330684,n
92,92,-83.25,38.25,lat38.25lon-83.25,1.5-degree,geo,7-Jun-16,9-Jun-16,13-Jun-16,0.9998791379,0.1877009606,n
93,93,-81.75,38.25,lat38.25lon-81.75,1.5-degree,geo,7-Jun-16,9-Jun-16,16-Jun-16,1.1319131612,0.188930712,n
94,94,-80.25,38.25,lat38.25lon-80.25,1.5-degree,geo,7-Jun-16,12-Jun-16,16-Jun-16,1.2639012473,0.1926240487,n
95,95,-78.75,38.25,lat38.25lon-78.75,1.5-degree,geo,14-Jun-16,18-Jun-16,28-Jun-16,1.3957974328,0.1987796844,n
96,96,-75.75,38.25,lat38.25lon-75.75,1.5-degree,geo,15-Jun-16,18-Jun-16,27-Jun-16,1.6591304248,0.2184684217,n
97,97,-98.25,39.75,lat39.75lon-98.25,1.5-degree,geo,17-Jun-16,22-May-16,5-Jul-16,-0.2821188194,0.4735014519,n
98,98,-96.75,39.75,lat39.75lon-96.75,1.5-degree,geo,18-Jun-16,23-Jun-16,4-Jul-16,-0.155194709,0.4507589263,n
99,99,-95.25,39.75,lat39.75lon-95.25,1.5-degree,geo,18-Jun-16,23-Jun-16,3-Jul-16,-0.0278683154,0.4303888072,n
100,100,-93.75,39.75,lat39.75lon-93.75,1.5-degree,geo,18-Jun-16,21-Jun-16,2-Jul-16,0.0998160216,0.4123981884,n
101,101,-90.75,39.75,lat39.75lon-90.75,1.5-degree,geo,18-Jun-16,21-Jun-16,2-Jul-16,0.3560805579,0.3835796806,n
102,102,-89.25,39.75,lat39.75lon-89.25,1.5-degree,geo,18-Jun-16,21-Jun-16,2-Jul-16,0.4845715161,0.3727618275,n
103,103,-87.75,39.75,lat39.75lon-87.75,1.5-degree,geo,18-Jun-16,21-Jun-16,2-Jul-16,0.6132419663,0.3643435424,n
104,104,-86.25,39.75,lat39.75lon-86.25,1.5-degree,geo,18-Jun-16,21-Jun-16,2-Jul-16,0.7420471005,0.3583277571,n
105,105,-83.25,39.75,lat39.75lon-83.25,1.5-degree,geo,18-Jun-16,21-Jun-16,30-Jun-16,0.9998819701,0.353511228,n
106,106,-81.75,39.75,lat39.75lon-81.75,1.5-degree,geo,18-Jun-16,21-Jun-16,28-Jun-16,1.1288219175,0.3547121615,n
107,107,-80.25,39.75,lat39.75lon-80.25,1.5-degree,geo,25-Jun-16,4-Jul-16,10-Jul-16,1.2577170042,0.3583189487,n
108,108,-78.75,39.75,lat39.75lon-78.75,1.5-degree,geo,26-Jun-16,4-Jul-16,9-Jul-16,1.3865223438,0.3643303337,n
109,109,-75.75,39.75,lat39.75lon-75.75,1.5-degree,geo,28-Jun-16,4-Jul-16,9-Jul-16,1.6436844092,0.3835576865,n
110,110,-98.25,41.25,lat41.25lon-98.25,1.5-degree,geo,29-Jun-16,4-Jul-16,8-Jul-16,-0.2512727112,0.6368563712,n
111,111,-96.75,41.25,lat41.25lon-96.75,1.5-degree,geo,1-Jul-16,3-Jul-16,8-Jul-16,-0.1274022295,0.6146610011,n
112,112,-95.25,41.25,lat41.25lon-95.25,1.5-degree,geo,2-Jul-16,7-Jul-16,12-Jul-16,-0.003139143,0.5947809606,n
113,113,-93.75,41.25,lat41.25lon-93.75,1.5-degree,geo,4-Jul-16,6-Jul-16,12-Jul-16,0.1214732752,0.5772231726,n
114,114,-90.75,41.25,lat41.25lon-90.75,1.5-degree,geo,5-Jul-16,11-Jul-16,16-Jul-16,0.3715724207,0.5490980006,n
115,115,-89.25,41.25,lat41.25lon-89.25,1.5-degree,geo,8-Jul-16,11-Jul-16,16-Jul-16,0.4969720538,0.5385404108,n
116,116,-87.75,41.25,lat41.25lon-87.75,1.5-degree,geo,ERROR,,,0.6225468606,0.5303246588,n
117,117,-86.25,41.25,lat41.25lon-86.25,1.5-degree,geo,12-Jul-16,15-Jul-16,23-Jul-16,0.7482531111,0.5244536054,n
118,118,-83.25,41.25,lat41.25lon-83.25,1.5-degree,geo,ERROR,,,0.9998848098,0.5197529557,n
119,119,-81.75,41.25,lat41.25lon-81.75,1.5-degree,geo,11-Jul-16,15-Jul-16,22-Jul-16,1.1257226301,0.5209249963,n
120,120,-80.25,41.25,lat41.25lon-80.25,1.5-degree,geo,10-Jul-16,13-Jul-16,23-Jul-16,1.2515166689,0.524445009,n
121,121,-78.75,41.25,lat41.25lon-78.75,1.5-degree,geo,11-Jul-16,13-Jul-16,23-Jul-16,1.3772231199,0.5303117678,n
122,122,-75.75,41.25,lat41.25lon-75.75,1.5-degree,geo,11-Jul-16,15-Jul-16,23-Jul-16,1.628198201,0.5490765356,n
123,123,-74.25,41.25,lat41.25lon-74.25,1.5-degree,geo,11-Jul-16,15-Jul-16,23-Jul-16,1.753379432,0.5619680099,n
124,124,-98.25,44.25,lat44.25lon-98.25,1.5-degree,geo,11-Jul-16,19-Jul-16,27-Jul-16,-0.1894066359,0.9644869325,n
125,125,-96.75,44.25,lat44.25lon-96.75,1.5-degree,geo,12-Jul-16,19-Jul-16,27-Jul-16,-0.0716606229,0.9433889574,n
126,126,-95.25,44.25,lat44.25lon-95.25,1.5-degree,geo,12-Jul-16,18-Jul-16,26-Jul-16,0.0464585835,0.9244918361,y
127,127,-93.75,44.25,lat44.25lon-93.75,1.5-degree,geo,10-Jul-16,15-Jul-16,26-Jul-16,0.1649098498,0.9078021494,y
128,128,-90.75,44.25,lat44.25lon-90.75,1.5-degree,geo,15-Jul-16,29-Jul-16,7-Aug-16,0.4026434635,0.8810675568,y
129,129,-89.25,44.25,lat44.25lon-89.25,1.5-degree,geo,19-Jul-16,29-Jul-16,5-Aug-16,0.5218430228,0.8710319609,y
130,130,-87.75,44.25,lat44.25lon-87.75,1.5-degree,geo,ERROR,,,0.6412090948,0.8632224163,y
131,131,-86.25,44.25,lat44.25lon-86.25,1.5-degree,geo,23-Jul-16,29-Jul-16,5-Aug-16,0.7607001116,0.8576416426,y
132,132,-80.25,44.25,lat44.25lon-80.25,1.5-degree,geo,24-Jul-16,28-Jul-16,4-Aug-16,1.2390810511,0.8576334712,n
133,133,-75.75,44.25,lat44.25lon-75.75,1.5-degree,geo,24-Jul-16,28-Jul-16,2-Aug-16,1.5971384993,0.8810471531,n
134,134,-74.25,44.25,lat44.25lon-74.25,1.5-degree,geo,25-Jul-16,27-Jul-16,4-Aug-16,1.7161304548,0.8933012404,n
135,135,-72.75,44.25,lat44.25lon-72.75,1.5-degree,geo,25-Jul-16,27-Jul-16,4-Aug-16,1.8348730261,0.9077736241,n
136,136,-71.25,44.25,lat44.25lon-71.25,1.5-degree,geo,25-Jul-16,27-Jul-16,4-Aug-16,1.9533248625,0.9244592642,n
137,137,-65.25,44.25,lat44.25lon-65.25,1.5-degree,geo,25-Jul-16,27-Jul-16,4-Aug-16,2.4234016892,1.0132066606,n
138,138,-98.25,45.75,lat45.75lon-98.25,1.5-degree,geo,24-Jul-16,29-Jul-16,11-Aug-16,-0.1584230486,1.1285699142,n
139,139,-96.75,45.75,lat45.75lon-96.75,1.5-degree,geo,24-Jul-16,29-Jul-16,9-Aug-16,-0.0437442741,1.1080215333,y
140,140,-95.25,45.75,lat45.75lon-95.25,1.5-degree,geo,24-Jul-16,29-Jul-16,10-Aug-16,0.0712979722,1.0896166748,y
141,141,-93.75,45.75,lat45.75lon-93.75,1.5-degree,geo,24-Jul-16,29-Jul-16,10-Aug-16,0.1866636284,1.0733617481,y
142,142,-90.75,45.75,lat45.75lon-90.75,1.5-degree,geo,24-Jul-16,29-Jul-16,12-Aug-16,0.4182043725,1.0473235813,n
143,143,-89.25,45.75,lat45.75lon-89.25,1.5-degree,geo,7-Aug-16,16-Aug-16,24-Aug-16,0.5342988289,1.0375494089,y
144,144,-87.75,45.75,lat45.75lon-87.75,1.5-degree,geo,6-Aug-16,14-Aug-16,24-Aug-16,0.6505554604,1.0299432999,y
145,145,-78.75,45.75,lat45.75lon-78.75,1.5-degree,geo,7-Aug-16,14-Aug-16,24-Aug-16,1.3492315885,1.0299313655,n
146,146,-75.75,45.75,lat45.75lon-75.75,1.5-degree,geo,7-Aug-16,15-Aug-16,24-Aug-16,1.5815832701,1.0473037092,n
147,147,-74.25,45.75,lat45.75lon-74.25,1.5-degree,geo,7-Aug-16,11-Aug-16,24-Aug-16,1.6974755307,1.0592385822,n
148,148,-72.75,45.75,lat45.75lon-72.75,1.5-degree,geo,7-Aug-16,11-Aug-16,21-Aug-16,1.8131249035,1.0733339658,n
149,149,-71.25,45.75,lat45.75lon-71.25,1.5-degree,geo,8-Aug-16,20-Aug-16,26-Aug-16,1.9284911149,1.0895849513,n
150,150,-68.25,45.75,lat45.75lon-68.25,1.5-degree,geo,8-Aug-16,13-Aug-16,20-Aug-16,2.1582134664,1.1285303428,n
151,151,-66.75,45.75,lat45.75lon-66.75,1.5-degree,geo,8-Aug-16,12-Aug-16,19-Aug-16,2.2724896083,1.1512111864,n
152,152,-63.75,45.75,lat45.75lon-63.75,1.5-degree,geo,8-Aug-16,11-Aug-16,19-Aug-16,2.4996728614,1.2029496804,n
153,153,-62.25,45.75,lat45.75lon-62.25,1.5-degree,geo,ERROR,,,2.6125008588,1.2319893135,n
154,154,-98.25,47.25,lat47.25lon-98.25,1.5-degree,geo,8-Aug-16,13-Aug-16,24-Aug-16,-0.1274324934,1.2926897965,n
155,155,-96.75,47.25,lat47.25lon-96.75,1.5-degree,geo,23-Aug-16,27-Aug-16,15-Sep-16,-0.0158216473,1.2726911333,y
156,156,-93.75,47.25,lat47.25lon-93.75,1.5-degree,geo,23-Aug-16,28-Aug-16,12-Sep-16,0.2084222992,1.2389585793,y
157,157,-83.25,47.25,lat47.25lon-83.25,1.5-degree,geo,23-Aug-16,27-Aug-16,11-Sep-16,0.9998962103,1.1871762705,n
158,158,-81.75,47.25,lat47.25lon-81.75,1.5-degree,geo,23-Aug-16,27-Aug-16,11-Sep-16,1.1132796848,1.1882323126,n
159,159,-80.25,47.25,lat47.25lon-80.25,1.5-degree,geo,24-Aug-16,27-Aug-16,13-Sep-16,1.2266237108,1.1914039447,n
160,160,-78.75,47.25,lat47.25lon-78.75,1.5-degree,geo,25-Aug-16,13-Sep-16,23-Sep-16,1.3398888178,1.1966900622,n
161,161,-75.75,47.25,lat47.25lon-75.75,1.5-degree,geo,25-Aug-16,12-Sep-16,17-Sep-16,1.5660245427,1.2135976545,n
162,162,-74.25,47.25,lat47.25lon-74.25,1.5-degree,geo,25-Aug-16,30-Aug-16,10-Sep-16,1.6788164114,1.2252132415,n
163,163,-72.75,47.25,lat47.25lon-72.75,1.5-degree,geo,26-Aug-16,30-Aug-16,6-Sep-16,1.79137189,1.2389315403,n
164,164,-71.25,47.25,lat47.25lon-71.25,1.5-degree,geo,26-Aug-16,30-Aug-16,6-Sep-16,1.9036517826,1.2547477735,n
165,165,-68.25,47.25,lat47.25lon-68.25,1.5-degree,geo,26-Aug-16,28-Aug-16,4-Sep-16,2.127228518,1.2926512837,n
166,166,-66.75,47.25,lat47.25lon-66.75,1.5-degree,geo,26-Aug-16,30-Aug-16,5-Sep-16,2.2384475029,1.3147253611,n
167,167,-65.25,47.25,lat47.25lon-65.25,1.5-degree,geo,ERROR,,,2.3492352128,1.3388709787,n
168,168,-98.25,48.75,lat48.75lon-98.25,1.5-degree,geo,14-Sep-16,27-Sep-16,14-Oct-16,-0.09645717,1.456729014,n
169,169,-96.75,48.75,lat48.75lon-96.75,1.5-degree,geo,14-Sep-16,26-Sep-16,14-Oct-16,0.0120872557,1.4372797984,y
170,170,-95.25,48.75,lat48.75lon-95.25,1.5-degree,geo,ERROR,,,0.1209757106,1.4198594449,y
171,171,-93.75,48.75,lat48.75lon-93.75,1.5-degree,geo,14-Sep-16,26-Sep-16,11-Oct-16,0.2301702756,1.4044740198,y
172,172,-90.75,48.75,lat48.75lon-90.75,1.5-degree,geo,14-Sep-16,16-Sep-16,11-Oct-16,0.4493255395,1.3798286757,n
173,173,-89.25,48.75,lat48.75lon-89.25,1.5-degree,geo,14-Sep-16,16-Sep-16,9-Oct-16,0.5592099201,1.3705773392,n
174,174,-83.25,48.75,lat48.75lon-83.25,1.5-degree,geo,14-Sep-16,18-Sep-16,14-Oct-16,0.9998990619,1.3541143893,n
175,175,-81.75,48.75,lat48.75lon-81.75,1.5-degree,geo,14-Sep-16,16-Sep-16,9-Oct-16,1.1101674143,1.3551414175,n
176,176,-80.25,48.75,lat48.75lon-80.25,1.5-degree,geo,14-Sep-16,24-Sep-16,9-Oct-16,1.2203974022,1.3582259115,n
177,177,-78.75,48.75,lat48.75lon-78.75,1.5-degree,geo,15-Sep-16,24-Sep-16,8-Oct-16,1.3305506392,1.363366797,n
178,178,-75.75,48.75,lat48.75lon-75.75,1.5-degree,geo,15-Sep-16,23-Sep-16,3-Oct-16,1.5504734624,1.3798098666,n
179,179,-74.25,48.75,lat48.75lon-74.25,1.5-degree,geo,15-Sep-16,22-Sep-16,2-Oct-16,1.6601664629,1.3911063244,n
180,180,-72.75,48.75,lat48.75lon-72.75,1.5-degree,geo,15-Sep-16,22-Sep-16,5-Oct-16,1.7696295681,1.4044477236,n
181,181,-71.25,48.75,lat48.75lon-71.25,1.5-degree,geo,16-Sep-16,20-Sep-16,1-Oct-16,1.8788246587,1.4198294183,n
182,182,-66.75,48.75,lat48.75lon-66.75,1.5-degree,geo,ERROR,,,2.2044221293,1.4781591687,n
183,183,-65.25,48.75,lat48.75lon-65.25,1.5-degree,geo,ERROR,,,2.3121660337,1.5016414044,n
184,184,-98.25,35.25,lat35.25lon-98.25,1.5-degree,geo,11-Oct-16,17-Oct-16,25-Oct-16,-0.3741170704,-0.0137031826,n
185,185,-96.75,35.25,lat35.25lon-96.75,1.5-degree,geo,11-Oct-16,17-Oct-16,25-Oct-16,-0.2380855388,-0.0380775948,n
186,186,-95.25,35.25,lat35.25lon-95.25,1.5-degree,geo,11-Oct-16,13-Oct-16,25-Oct-16,-0.1016228581,-0.0599093689,n
187,187,-93.75,35.25,lat35.25lon-93.75,1.5-degree,geo,12-Oct-16,16-Oct-16,24-Oct-16,0.0352234501,-0.079190902,n
188,188,-90.75,35.25,lat35.25lon-90.75,1.5-degree,geo,12-Oct-16,17-Oct-16,24-Oct-16,0.3098762112,-0.1100772776,n
189,189,-89.25,35.25,lat35.25lon-89.25,1.5-degree,geo,12-Oct-16,16-Oct-16,24-Oct-16,0.4475870195,-0.1216713643,n
190,190,-87.75,35.25,lat35.25lon-87.75,1.5-degree,geo,12-Oct-16,16-Oct-16,21-Oct-16,0.5854901993,-0.1306937021,n
191,191,-86.25,35.25,lat35.25lon-86.25,1.5-degree,geo,13-Oct-16,16-Oct-16,22-Oct-16,0.7235377274,-0.1371411492,n
192,192,-83.25,35.25,lat35.25lon-83.25,1.5-degree,geo,12-Oct-16,17-Oct-16,21-Oct-16,0.9998735009,-0.1423032877,n
193,193,-81.75,35.25,lat35.25lon-81.75,1.5-degree,geo,13-Oct-16,15-Oct-16,22-Oct-16,1.1380655156,-0.1410161814,n
194,194,-80.25,35.25,lat35.25lon-80.25,1.5-degree,geo,13-Oct-16,15-Oct-16,20-Oct-16,1.2762094506,-0.1371505897,n
195,195,-78.75,35.25,lat35.25lon-78.75,1.5-degree,geo,13-Oct-16,15-Oct-16,21-Oct-16,1.4142571989,-0.1307078586,n
196,196,-99.75,36.75,lat36.75lon-99.75,1.5-degree,geo,23-Oct-16,25-Oct-16,30-Oct-16,-0.4760938985,0.174453987,n
197,197,-92.25,36.75,lat36.75lon-92.25,1.5-degree,geo,23-Oct-16,27-Oct-16,31-Oct-16,0.1908120414,0.0677600565,n
198,198,-84.75,36.75,lat36.75lon-84.75,1.5-degree,geo,24-Oct-16,27-Oct-16,1-Nov-16,0.8647578357,0.0236670438,n
199,199,-77.25,36.75,lat36.75lon-77.25,1.5-degree,geo,24-Oct-16,27-Oct-16,31-Oct-16,1.5398802233,0.0425585538,n
200,200,-99.75,38.25,lat38.25lon-99.75,1.5-degree,geo,25-Oct-16,27-Oct-16,2-Nov-16,-0.442397487,0.3362799873,n
201,201,-92.25,38.25,lat38.25lon-92.25,1.5-degree,geo,25-Oct-16,28-Oct-16,2-Nov-16,0.2092842608,0.2320216759,n
202,202,-84.75,38.25,lat38.25lon-84.75,1.5-degree,geo,25-Oct-16,28-Oct-16,2-Nov-16,0.8678451566,0.1889352227,n
203,203,-77.25,38.25,lat38.25lon-77.25,1.5-degree,geo,25-Oct-16,28-Oct-16,2-Nov-16,1.5275557864,0.2073954755,n
204,204,-99.75,39.75,lat39.75lon-99.75,1.5-degree,geo,8-Nov-16,9-Nov-16,16-Nov-16,-0.4085964467,0.4986084643,n
205,205,-92.25,39.75,lat39.75lon-92.25,1.5-degree,geo,8-Nov-16,11-Nov-16,17-Nov-16,0.2278138373,0.3967933348,n
206,206,-84.75,39.75,lat39.75lon-84.75,1.5-degree,geo,8-Nov-16,11-Nov-16,17-Nov-16,0.8709420638,0.3547165665,n
207,207,-77.25,39.75,lat39.75lon-77.25,1.5-degree,geo,8-Nov-16,11-Nov-16,16-Nov-16,1.5151930815,0.372744223,n
208,208,-99.75,41.25,lat41.25lon-99.75,1.5-degree,geo,8-Nov-16,12-Nov-16,20-Nov-16,-0.3747074516,0.6613593416,n
209,209,-92.25,41.25,lat41.25lon-92.25,1.5-degree,geo,8-Nov-16,14-Nov-16,21-Nov-16,0.2463916302,0.5619937514,n
210,210,-84.75,41.25,lat41.25lon-84.75,1.5-degree,geo,8-Nov-16,13-Nov-16,20-Nov-16,0.8740470296,0.5209292953,n
211,211,-77.25,41.25,lat41.25lon-77.25,1.5-degree,geo,8-Nov-16,12-Nov-16,21-Nov-16,1.5027982073,0.5385232299,n
212,212,-98.25,42.75,lat42.75lon-98.25,1.5-degree,geo,22-Nov-16,21-Dec-16,28-Dec-16,-0.220362817,0.8005490889,n
213,213,-96.75,42.75,lat42.75lon-96.75,1.5-degree,geo,22-Nov-16,20-Dec-16,25-Dec-16,-0.0995522786,0.7789020058,n
214,214,-95.25,42.75,lat42.75lon-95.25,1.5-degree,geo,22-Nov-16,20-Dec-16,25-Dec-16,0.0216411663,0.7595130572,n
215,215,-93.75,42.75,lat42.75lon-93.75,1.5-degree,geo,3-Dec-16,20-Dec-16,25-Dec-16,0.1431753134,0.7423889951,n
216,216,-90.75,42.75,lat42.75lon-90.75,1.5-degree,geo,3-Dec-16,20-Dec-16,25-Dec-16,0.3870963187,0.7149585926,y
217,217,-89.25,42.75,lat42.75lon-89.25,1.5-degree,geo,3-Dec-16,14-Dec-16,19-Dec-16,0.5093982343,0.7046618045,y
218,218,-87.75,42.75,lat42.75lon-87.75,1.5-degree,geo,ERROR,,,0.6318709964,0.6966490042,y
219,219,-86.25,42.75,lat42.75lon-86.25,1.5-degree,geo,3-Dec-16,11-Dec-16,19-Dec-16,0.7544719551,0.6909229821,y
220,220,-83.25,42.75,lat42.75lon-83.25,1.5-degree,geo,3-Dec-16,11-Dec-16,18-Dec-16,0.9998876553,0.6863384514,n
221,221,-78.75,42.75,lat42.75lon-78.75,1.5-degree,geo,3-Dec-16,11-Dec-16,18-Dec-16,1.3679046663,0.6966364317,n
222,222,-75.75,42.75,lat42.75lon-75.75,1.5-degree,geo,3-Dec-16,5-Dec-16,10-Dec-16,1.6126799692,0.7149376579,n
223,223,-74.25,42.75,lat42.75lon-74.25,1.5-degree,geo,3-Dec-16,5-Dec-16,13-Dec-16,1.7347688778,0.7275106771,n
224,224,-72.75,42.75,lat42.75lon-72.75,1.5-degree,geo,3-Dec-16,5-Dec-16,10-Dec-16,1.8566019116,0.7423597273,n
225,225,-71.25,42.75,lat42.75lon-71.25,1.5-degree,geo,3-Dec-16,5-Dec-16,10-Dec-16,1.9781366436,0.7594796375,n
226,226,-99.75,44.25,lat44.25lon-99.75,1.5-degree,geo,30-Dec-16,31-Dec-16,2-Mar-17,-0.3067384518,0.9877784142,n
227,227,-92.25,44.25,lat44.25lon-92.25,1.5-degree,geo,30-Dec-16,1-Jan-17,8-Jan-17,0.2836519267,0.8933257092,y
228,228,-84.75,44.25,lat44.25lon-84.75,1.5-degree,geo,30-Dec-16,1-Jan-17,17-Jan-17,0.8802744618,0.8542915833,y
229,229,-99.75,45.75,lat45.75lon-99.75,1.5-degree,geo,30-Dec-16,31-Dec-16,,-0.2726984156,1.1512546618,n
230,230,-92.25,45.75,lat45.75lon-92.25,1.5-degree,geo,30-Dec-16,3-Jan-17,*crolli,0.3023125196,1.0592624136,y
231,231,-77.25,45.75,lat45.75lon-77.25,1.5-degree,geo,30-Dec-16,2-Jan-17,21-Mar-17,1.4654884798,1.0375335028,n
232,232,-69.75,45.75,lat45.75lon-69.75,1.5-degree,geo,3-Jan-17,4-Mar-17,*crolli,2.04353399,1.1079858796,n
233,233,-99.75,47.25,lat47.25lon-99.75,1.5-degree,geo,30-Dec-16,3-Jan-17,*crolli,-0.2386507241,1.3147676735,n
234,234,-92.25,47.25,lat47.25lon-92.25,1.5-degree,geo,3-Jan-17,18-Jan-17,,0.3209773091,1.2252364353,y
235,235,-77.25,47.25,lat47.25lon-77.25,1.5-degree,,,,,1.4530355625,1.2040888243,n
236,236,-69.75,47.25,lat47.25lon-69.75,1.5-degree,,,,,2.0156169887,1.2726564335,n
237,237,-99.75,48.75,lat48.75lon-99.75,1.5-degree,,,,,-0.2046197671,1.4782003186,n
238,238,-92.25,48.75,lat48.75lon-92.25,1.5-degree,,,,,0.3396329249,1.391128881,n
239,239,-84.75,48.75,lat48.75lon-84.75,1.5-degree,,,,,0.8896307446,1.3551451846,n
240,240,-77.25,48.75,lat48.75lon-77.25,1.5-degree,,,,,1.4405887658,1.370562284,n
241,241,-69.75,48.75,lat48.75lon-69.75,1.5-degree,,,,,1.9877137087,1.4372460519,n
301,301,-91.25,43.75,lat43.75lon-91.25,priority,,,,,0.3574256052,0.8295490124,n
309,309,-75.25,43.75,lat43.75lon-75.25,priority,,,,,1.6423545975,0.829527064,n
314,314,-93.25,44.75,lat44.75lon-93.25,priority,,,,,0.2113667206,0.9579499911,n
317,317,-88.25,44.75,lat44.75lon-88.25,priority,,,,,0.604864861,0.9211201152,n
333,333,-88.25,46.75,lat46.75lon-88.25,priority,,,,,0.6187116461,1.1433719262,n
343,343,-69.25,46.75,lat46.75lon-69.25,priority,,,,,2.0625084585,1.2242616352,n
482,482,-72.25,43.75,lat43.75lon-72.25,priority,,,,,1.8819800647,0.8579766158,n
657,657,-95.75,46.25,lat46.25lon-95.75,priority,,,,,0.0415368361,1.1505159686,n
899,899,-92.75,38.75,lat38.75lon-92.75,priority,,,,,0.1720734419,0.2919079764,n
903,903,-88.75,38.75,lat38.75lon-88.75,priority,,,,,0.5198805851,0.2593545979,n
1118,1118,-88.25,42.25,lat42.25lon-88.25,priority,,,,,0.587575514,0.6436124735,n
1212,1212,-73.75,43.75,lat43.75lon-73.75,priority,,,,,1.7623000622,0.8426338696,n
1292,1292,-91.25,45.25,lat45.25lon-91.25,priority,,,,,0.3740166777,0.995667779,n
